54146,ONEWEB-0531,2022,109.03,148.0,+,87.92,Active,1,LEO,India,UK,Commercial,Communications,PSLV,1 54146U 22138AK  24222.57284421  .00000100  00000+0  21310-3 0  9991,2 54146  87.9182  49.0298 0002483 115.6687 244.4703 13.20773133 89999,13.20773133,0.0002483,LEO
54147,ONEWEB-0535,2022,109.11,148.0,+,87.91,Active,1,LEO,India,UK,Commercial,Communications,PSLV,1 54147U 22138AL  24222.56605489  .00000042  00000+0  72941-4 0  9994,2 54147  87.9101  79.5794 0001887  90.1534 269.9815 13.19725027 87592,13.19725027,0.0001887,LEO
54148,ONEWEB-0536,2022,109.03,148.0,+,87.92,Active,1,LEO,India,UK,Commercial,Communications,PSLV,1 54148U 22138AM  24222.56022474  .00000107  00000+0  23197-3 0  9992,2 54148  87.9185  49.0816 0002728 102.0945 258.0495 13.20771318 89980,13.20771318,0.0002728,LEO
54642,ONEWEB-0527,2022,108.94,148.0,+,87.93,Active,1,LEO,USA,UK,Commercial,Communications,Falcon,1 54642U 22166A   24222.44548164 -.00000209  00000+0 -53829-3 0  9998,2 54642  87.9305  18.7166 0001730  95.4921 264.6410 13.21824128 82134,13.21824128,0.000173,LEO
54643,ONEWEB-0528,2022,108.94,148.0,+,87.93,Active,1,LEO,USA,UK,Commercial,Communications,Falcon,1 54643U 22166B   24222.45179782  .00000072  00000+0  14170-3 0  9998,2 54643  87.9309  18.7043 0001636  92.8157 267.3164 13.21825215 82145,13.21825215,0.0001636,LEO
54644,ONEWEB-0539,2022,108.94,148.0,+,87.93,Active,1,LEO,USA,UK,Commercial,Communications,Falcon,1 54644U 22166C   24222.48806591  .00000018  00000+0  13014-4 0  9994,2 54644  87.9313  18.7001 0001867  87.9527 272.1820 13.21824071 82149,13.21824071,0.0001867,LEO
54645,ONEWEB-0540,2022,108.94,148.0,+,87.93,Active,1,LEO,USA,UK,Commercial,Communications,Falcon,1 54645U 22166D   24222.48253654  .00000010  00000+0 -66167-5 0  9992,2 54645  87.9306  18.7166 0001863  85.4801 274.6546 13.21828005 82130,13.21828005,0.0001863,LEO
54646,ONEWEB-0542,2022,108.94,148.0,+,87.93,Active,1,LEO,USA,UK,Commercial,Communications,Falcon,1 54646U 22166E   24222.49753330  .00000003  00000+0 -23051-4 0  9996,2 54646  87.9310  18.6976 0002223  85.9432 274.1956 13.21827635 82149,13.21827635,0.0002223,LEO
